NORAD_CAT_ID,OBJECT_NAME,OBJECT_TYPE,EPOCH,MEAN_MOTION,ECCENTRICITY,INCLINATION,RA_OF_ASC_NODE,ARG_OF_PERICENTER,MEAN_ANOMALY,BSTAR,MEAN_MOTION_DOT,MEAN_MOTION_DDOT,TLE_LINE0,TLE_LINE1,TLE_LINE2,SEMIMAJOR_AXIS,PERIOD,APOGEE,PERIGEE,DECAYED
52877.0,STARLINK-4214,PAYLOAD,2023-11-14 23:21:05,15.08819361,0.0001383,53.219,210.6908,96.9087,263.2063,-5.6199e-05,-1.182e-05,0.0,0 STARLINK-4214,1 52877U 22062AZ  23318.97298260 -.00001182  00000-0 -56199-4 0  9999,2 52877  53.2190 210.6908 0001383  96.9087 263.2063 15.08819361 78392,6917.943,95.439,540.765,538.852,0.0
52877.0,STARLINK-4214,PAYLOAD,2023-11-15 02:31:52,15.08818539,0.0001463,53.219,210.0973,98.4898,261.626,-5.5428e-06,-3.76e-06,0.0,0 STARLINK-4214,1 52877U 22062AZ  23319.10546395 -.00000376  00000-0 -55428-5 0  9999,2 52877  53.2190 210.0973 0001463  98.4898 261.6260 15.08818539 78908,6917.946,95.439,540.823,538.799,0.0
52877.0,STARLINK-4214,PAYLOAD,2023-11-15 23:11:51,15.08845405,0.0001147,53.2187,206.2321,91.0052,269.1072,7.0932e-05,8.41e-06,0.0,0 STARLINK-4214,1 52877U 22062AZ  23319.96656621  .00000841  00000-0  70932-4 0  9998,2 52877  53.2187 206.2321 0001147  91.0052 269.1072 15.08845405 78544,6917.864,95.437,540.522,538.935,0.0
52877.0,STARLINK-4214,PAYLOAD,2023-11-16 02:22:38,15.08802806,0.000197,53.2192,205.6328,96.3213,263.8003,0.00082636,0.00012875,0.0,0 STARLINK-4214,1 52877U 22062AZ  23320.09905294  .00012875  00000-0  82636-3 0  9990,2 52877  53.2192 205.6328 0001970  96.3213 263.8003 15.08802806 79051,6917.994,95.44,541.222,538.496,0.0
52877.0,STARLINK-4214,PAYLOAD,2023-11-16 23:02:38,15.08841103,0.0001419,53.221,201.7703,100.6901,259.4251,0.00029703,4.443e-05,0.0,0 STARLINK-4214,1 52877U 22062AZ  23320.96016307  .00004443  00000-0  29703-3 0  9992,2 52877  53.2210 201.7703 0001419 100.6901 259.4251 15.08841103 78695,6917.877,95.437,540.724,538.76,0.0
52877.0,STARLINK-4214,PAYLOAD,2023-11-17 02:13:23,15.08854063,0.0001359,53.2185,201.1746,104.7848,255.3295,0.00015038,2.107e-05,0.0,0 STARLINK-4214,1 52877U 22062AZ  23321.09263730  .00002107  00000-0  15038-3 0  9992,2 52877  53.2185 201.1746 0001359 104.7848 255.3295 15.08854063 79205,6917.837,95.437,540.643,538.762,0.0
52877.0,STARLINK-4214,PAYLOAD,2023-11-17 16:31:53,15.08835469,0.0001824,53.2164,198.4979,98.0472,262.0727,-0.00011703,-2.15e-05,0.0,0 STARLINK-4214,1 52877U 22062AZ  23321.68881642 -.00002150  00000-0 -11703-3 0  9990,2 52877  53.2164 198.4979 0001824  98.0472 262.0727 15.08835469 79296,6917.894,95.438,541.021,538.497,0.0
52877.0,STARLINK-4214,PAYLOAD,2023-11-17 22:53:26,15.08831692,0.0001595,53.2192,197.3093,94.3649,265.7525,-0.00018511,-3.232e-05,0.0,0 STARLINK-4214,1 52877U 22062AZ  23321.95378112 -.00003232  00000-0 -18511-3 0  9999,2 52877  53.2192 197.3093 0001595  94.3649 265.7525 15.08831692 78842,6917.906,95.438,540.874,538.667,0.0
52877.0,STARLINK-4214,PAYLOAD,2023-11-18 02:04:13,15.08828851,0.0001588,53.2188,196.7142,92.4848,267.6326,-0.00016246,-2.872e-05,0.0,0 STARLINK-4214,1 52877U 22062AZ  23322.08626312 -.00002872  00000-0 -16246-3 0  9994,2 52877  53.2188 196.7142 0001588  92.4848 267.6326 15.08828851 79357,6917.914,95.438,540.878,538.681,0.0
52877.0,STARLINK-4214,PAYLOAD,2023-11-18 22:44:13,15.08845476,0.0001517,53.2198,192.8502,92.1482,267.9684,-0.00010554,-1.968e-05,0.0,0 STARLINK-4214,1 52877U 22062AZ  23322.94737339 -.00001968  00000-0 -10554-3 0  9992,2 52877  53.2198 192.8502 0001517  92.1482 267.9684 15.08845476 78999,6917.864,95.437,540.778,538.679,0.0
52877.0,STARLINK-4214,PAYLOAD,2023-11-19 08:16:32,15.08832322,0.0002394,53.218,191.0649,90.6421,269.4846,0.00011147,1.486e-05,0.0,0 STARLINK-4214,1 52877U 22062AZ  23323.34481785  .00001486  00000-0  11147-3 0  9990,2 52877  53.2180 191.0649 0002394  90.6421 269.4846 15.08832322 79548,6917.904,95.438,541.425,538.113,0.0
52877.0,STARLINK-4214,PAYLOAD,2023-11-19 19:24:13,15.0883911,0.0001618,53.2187,188.9842,88.1884,271.9293,0.00025684,3.802e-05,0.0,0 STARLINK-4214,1 52877U 22062AZ  23323.80848938  .00003802  00000-0  25684-3 0  9993,2 52877  53.2187 188.9842 0001618  88.1884 271.9293 15.08839110 79612,6917.883,95.438,540.867,538.629,0.0
52877.0,STARLINK-4214,PAYLOAD,2023-11-19 22:34:59,15.08841375,0.0001655,53.2169,188.3896,90.0334,270.0848,0.00028654,4.275e-05,0.0,0 STARLINK-4214,1 52877U 22062AZ  23323.94096804  .00004275  00000-0  28654-3 0  9990,2 52877  53.2169 188.3896 0001655  90.0334 270.0848 15.08841375 79148,6917.876,95.437,540.886,538.596,0.0
52877.0,STARLINK-4214,PAYLOAD,2023-11-20 08:07:18,15.08844302,0.0001384,53.2159,186.6032,85.8296,274.2855,0.00030847,4.625e-05,0.0,0 STARLINK-4214,1 52877U 22062AZ  23324.33840680  .00004625  00000-0  30847-3 0  9999,2 52877  53.2159 186.6032 0001384  85.8296 274.2855 15.08844302 79202,6917.867,95.437,540.69,538.775,0.0
52877.0,STARLINK-4214,PAYLOAD,2023-11-20 22:25:46,15.08853596,0.0001729,53.2161,183.9298,87.0825,273.0364,0.00012744,1.741e-05,0.0,0 STARLINK-4214,1 52877U 22062AZ  23324.93456307  .00001741  00000-0  12744-3 0  9996,2 52877  53.2161 183.9298 0001729  87.0825 273.0364 15.08853596 79290,6917.839,95.437,540.9,538.508,0.0
52877.0,STARLINK-4214,PAYLOAD,2023-11-21 00:01:09,15.08855456,0.0001739,53.2162,183.6322,86.7759,273.3432,0.00014597,2.037e-05,0.0,0 STARLINK-4214,1 52877U 22062AZ  23325.00080120  .00002037  00000-0  14597-3 0  9998,2 52877  53.2162 183.6322 0001739  86.7759 273.3432 15.08855456 79790,6917.833,95.437,540.901,538.495,0.0
52877.0,STARLINK-4214,PAYLOAD,2023-11-21 07:58:05,15.08848039,0.0001824,53.2161,182.144,85.9993,274.1208,3.3518e-05,2.45e-06,0.0,0 STARLINK-4214,1 52877U 22062AZ  23325.33200273  .00000245  00000-0  33518-4 0  9991,2 52877  53.2161 182.1440 0001824  85.9993 274.1208 15.08848039 79845,6917.856,95.437,540.983,538.459,0.0
52877.0,STARLINK-4214,PAYLOAD,2023-11-21 20:41:09,15.08849471,0.0001849,53.2167,179.7634,86.2798,273.8405,5.6791e-06,-1.98e-06,0.0,0 STARLINK-4214,1 52877U 22062AZ  23325.86191983 -.00000198  00000-0  56791-5 0  9993,2 52877  53.2167 179.7634 0001849  86.2798 273.8405 15.08849471 79433,6917.851,95.437,540.996,538.437,0.0
52877.0,STARLINK-4214,PAYLOAD,2023-11-21 23:51:56,15.08848784,0.0001787,53.2171,179.1677,84.5475,275.5721,5.0271e-05,5.12e-06,0.0,0 STARLINK-4214,1 52877U 22062AZ  23325.99439938  .00000512  00000-0  50271-4 0  9997,2 52877  53.2171 179.1677 0001787  84.5475 275.5721 15.08848784 79451,6917.854,95.437,540.955,538.482,0.0
52877.0,STARLINK-4214,PAYLOAD,2023-11-22 18:56:33,15.08840792,0.0001567,53.217,175.5989,94.639,265.4781,8.3902e-05,1.048e-05,0.0,0 STARLINK-4214,1 52877U 22062AZ  23326.78928161  .00001048  00000-0  83902-4 0  9998,2 52877  53.2170 175.5989 0001567  94.6390 265.4781 15.08840792 80064,6917.878,95.438,540.827,538.659,0.0
52877.0,STARLINK-4214,PAYLOAD,2023-11-22 20:31:57,15.08841539,0.0001646,53.2172,175.3005,100.1677,259.95,7.2105e-05,8.6e-06,0.0,0 STARLINK-4214,1 52877U 22062AZ  23326.85552118  .00000860  00000-0  72105-4 0  9995,2 52877  53.2172 175.3005 0001646 100.1677 259.9500 15.08841539 79584,6917.876,95.437,540.879,538.602,0.0
52877.0,STARLINK-4214,PAYLOAD,2023-11-23 18:47:21,15.08833833,0.0001746,53.216,171.138,97.5884,262.5307,7.614e-06,-1.67e-06,0.0,0 STARLINK-4214,1 52877U 22062AZ  23327.78288727 -.00000167  00000-0  76140-5 0  9995,2 52877  53.2160 171.1380 0001746  97.5884 262.5307 15.08833833 80216,6917.899,95.438,540.972,538.556,0.0
52877.0,STARLINK-4214,PAYLOAD,2023-11-23 20:22:44,15.08834442,0.0001747,53.2171,170.8392,104.2743,255.8443,5.1362e-06,-2.06e-06,0.0,0 STARLINK-4214,1 52877U 22062AZ  23327.84912729 -.00000206  00000-0  51362-5 0  9991,2 52877  53.2171 170.8392 0001747 104.2743 255.8443 15.08834442 79736,6917.897,95.438,540.971,538.554,0.0
52877.0,STARLINK-4214,PAYLOAD,2023-11-23 23:33:30,15.08833827,0.0001821,53.2174,170.2472,107.8829,252.2362,-9.6432e-06,-4.42e-06,0.0,0 STARLINK-4214,1 52877U 22062AZ  23327.98160849 -.00000442  00000-0 -96432-5 0  9994,2 52877  53.2174 170.2472 0001821 107.8829 252.2362 15.08833827 79758,6917.899,95.438,541.024,538.505,0.0
52877.0,STARLINK-4214,PAYLOAD,2023-11-24 18:38:08,15.08838744,0.0001673,53.2166,166.6814,101.975,258.143,0.00011054,1.472e-05,0.0,0 STARLINK-4214,1 52877U 22062AZ  23328.77648445  .00001472  00000-0  11054-3 0  9992,2 52877  53.2166 166.6814 0001673 101.9750 258.1430 15.08838744 80364,6917.884,95.438,540.907,538.592,0.0
52877.0,STARLINK-4214,PAYLOAD,2023-11-24 20:13:31,15.0883971,0.000167,53.2167,166.384,101.1504,258.9676,0.00011703,1.575e-05,0.0,0 STARLINK-4214,1 52877U 22062AZ  23328.84272393  .00001575  00000-0  11703-3 0  9990,2 52877  53.2167 166.3840 0001670 101.1504 258.9676 15.08839710 79886,6917.881,95.438,540.902,538.591,0.0
52877.0,STARLINK-4214,PAYLOAD,2023-11-25 18:28:55,15.08843286,0.0001605,53.2169,162.2211,93.3745,266.7431,0.00014307,1.99e-05,0.0,0 STARLINK-4214,1 52877U 22062AZ  23329.77008332  .00001990  00000-0  14307-3 0  9997,2 52877  53.2169 162.2211 0001605  93.3745 266.7431 15.08843286 80029,6917.87,95.437,540.846,538.625,0.0
52877.0,STARLINK-4214,PAYLOAD,2023-11-26 11:58:09,15.08842935,0.0001661,53.2172,158.95,91.5516,268.5666,8.1438e-05,1.008e-05,0.0,0 STARLINK-4214,1 52877U 22062AZ  23330.49872434  .00001008  00000-0  81438-4 0  9990,2 52877  53.2172 158.9500 0001661  91.5516 268.5666 15.08842935 80620,6917.871,95.437,540.885,538.587,0.0
52877.0,STARLINK-4214,PAYLOAD,2023-11-26 18:19:42,15.08841455,0.000164,53.2171,157.7595,98.7204,261.3974,3.4571e-05,2.62e-06,0.0,0 STARLINK-4214,1 52877U 22062AZ  23330.76368525  .00000262  00000-0  34571-4 0  9998,2 52877  53.2171 157.7595 0001640  98.7204 261.3974 15.08841455 80179,6917.876,95.437,540.875,538.606,0.0
52877.0,STARLINK-4214,PAYLOAD,2023-11-27 11:48:57,15.08837179,0.0001762,53.2174,154.489,107.9096,252.2088,1.1964e-05,-9.8e-07,0.0,0 STARLINK-4214,1 52877U 22062AZ  23331.49232786 -.00000098  00000-0  11964-4 0  9997,2 52877  53.2174 154.4890 0001762 107.9096 252.2088 15.08837179 80770,6917.889,95.438,540.973,538.535,0.0
